IRIDIUM 63              
1 25286U 98021B   25188.72781767  .00000250  00000+0  78429-4 0  9992
2 25286  86.3961  73.5145 0002069  89.6713 270.4721 14.36557381426798
IRIDIUM 69              
1 25319U 98026A   25188.95520604  .00000353  00000+0  10358-3 0  9990
2 25319  86.3963  86.6477 0001957  16.1819 343.9443 14.40983893426059
IRIDIUM 71              
1 25320U 98026B   25188.95932202  .00000290  00000+0  83758-4 0  9998
2 25320  86.3959  81.3325 0003580  52.2744 307.8779 14.41171523426581
IRIDIUM 73              
1 25344U 98032C   25188.87809667  .00000372  00000+0  87456-4 0  9990
2 25344  86.4398  38.0261 0001598  81.9993 278.1394 14.51731580433560
IRIDIUM 82              
1 25467U 98051A   25188.78961816  .00015291  00000+0  42930-3 0  9995
2 25467  86.3669  99.6029 0081790 216.4348 143.1320 15.33025621427119
